[{"OBJECT_NAME":"STARLINK-5796","OBJECT_ID":"2023-037C","EPOCH":"2026-03-09T21:17:37.878144","MEAN_MOTION":14.98333112,"ECCENTRICITY":0.00025469,"INCLINATION":69.9996,"RA_OF_ASC_NODE":304.0841,"ARG_OF_PERICENTER":265.0751,"MEAN_ANOMALY":95.0118,"EPHEMERIS_TYPE":0,"CLASSIFICATION_TYPE":"U","NORAD_CAT_ID":55916,"ELEMENT_SET_NO":999,"REV_AT_EPOCH":16351,"BSTAR":-1.7216849e-5,"MEAN_MOTION_DOT":-2.98e-6,"MEAN_MOTION_DDOT":0},{"OBJECT_NAME":"SL-16 DEB","OBJECT_ID":"1992-093JY","EPOCH":"2026-03-07T13:13:58.279008","MEAN_MOTION":15.07529046,"ECCENTRICITY":0.0041412,"INCLINATION":71.2754,"RA_OF_ASC_NODE":129.6393,"ARG_OF_PERICENTER":153.6297,"MEAN_ANOMALY":274.6618,"EPHEMERIS_TYPE":0,"CLASSIFICATION_TYPE":"U","NORAD_CAT_ID":39708,"ELEMENT_SET_NO":999,"REV_AT_EPOCH":64104,"BSTAR":0.0012088,"MEAN_MOTION_DOT":0.00018716,"MEAN_MOTION_DDOT":0}]
